[
  {
    "OBJECT_NAME": "CYGFM04",
    "OBJECT_ID": "2016-078B",
    "EPOCH": "2025-05-04T03:58:18.506208",
    "MEAN_MOTION": 15.41359569,
    "ECCENTRICITY": 0.0010549,
    "INCLINATION": 34.9376,
    "RA_OF_ASC_NODE": 30.5931,
    "ARG_OF_PERICENTER": 290.2502,
    "MEAN_ANOMALY": 69.7083,
    "EPHEMERIS_TYPE": 0,
    "CLASSIFICATION_TYPE": "U",
    "NORAD_CAT_ID": 41885,
    "ELEMENT_SET_NO": 999,
    "REV_AT_EPOCH": 46565,
    "BSTAR": 0.0004116,
    "MEAN_MOTION_DOT": 0.00017704,
    "MEAN_MOTION_DDOT": 0
  },
  {
    "OBJECT_NAME": "CYGFM02",
    "OBJECT_ID": "2016-078C",
    "EPOCH": "2025-05-03T20:47:38.180832",
    "MEAN_MOTION": 15.42300645,
    "ECCENTRICITY": 0.0012452,
    "INCLINATION": 34.9461,
    "RA_OF_ASC_NODE": 33.0744,
    "ARG_OF_PERICENTER": 281.5633,
    "MEAN_ANOMALY": 78.3688,
    "EPHEMERIS_TYPE": 0,
    "CLASSIFICATION_TYPE": "U",
    "NORAD_CAT_ID": 41886,
    "ELEMENT_SET_NO": 999,
    "REV_AT_EPOCH": 46555,
    "BSTAR": 0.00043837,
    "MEAN_MOTION_DOT": 0.00019483,
    "MEAN_MOTION_DDOT": 0
  },
  {
    "OBJECT_NAME": "CYGFM01",
    "OBJECT_ID": "2016-078D",
    "EPOCH": "2025-05-03T21:30:53.653248",
    "MEAN_MOTION": 15.40053363,
    "ECCENTRICITY": 0.0010909,
    "INCLINATION": 34.9454,
    "RA_OF_ASC_NODE": 56.1433,
    "ARG_OF_PERICENTER": 256.078,
    "MEAN_ANOMALY": 103.8726,
    "EPHEMERIS_TYPE": 0,
    "CLASSIFICATION_TYPE": "U",
    "NORAD_CAT_ID": 41887,
    "ELEMENT_SET_NO": 999,
    "REV_AT_EPOCH": 46525,
    "BSTAR": 0.00041429,
    "MEAN_MOTION_DOT": 0.00017062,
    "MEAN_MOTION_DDOT": 0
  },
  {
    "OBJECT_NAME": "CYGFM08",
    "OBJECT_ID": "2016-078E",
    "EPOCH": "2025-05-03T21:40:35.520096",
    "MEAN_MOTION": 15.40914224,
    "ECCENTRICITY": 0.0012982,
    "INCLINATION": 34.9481,
    "RA_OF_ASC_NODE": 41.2353,
    "ARG_OF_PERICENTER": 277.2023,
    "MEAN_ANOMALY": 82.7221,
    "EPHEMERIS_TYPE": 0,
    "CLASSIFICATION_TYPE": "U",
    "NORAD_CAT_ID": 41888,
    "ELEMENT_SET_NO": 999,
    "REV_AT_EPOCH": 46546,
    "BSTAR": 0.00041967,
    "MEAN_MOTION_DOT": 0.00017803,
    "MEAN_MOTION_DDOT": 0
  },
  {
    "OBJECT_NAME": "CYGFM07",
    "OBJECT_ID": "2016-078G",
    "EPOCH": "2025-05-03T22:11:46.734144",
    "MEAN_MOTION": 15.41457737,
    "ECCENTRICITY": 0.0011074,
    "INCLINATION": 34.95,
    "RA_OF_ASC_NODE": 31.3186,
    "ARG_OF_PERICENTER": 292.7088,
    "MEAN_ANOMALY": 67.2461,
    "EPHEMERIS_TYPE": 0,
    "CLASSIFICATION_TYPE": "U",
    "NORAD_CAT_ID": 41890,
    "ELEMENT_SET_NO": 999,
    "REV_AT_EPOCH": 46547,
    "BSTAR": 0.00042132,
    "MEAN_MOTION_DOT": 0.00018187,
    "MEAN_MOTION_DDOT": 0
  },
  {
    "OBJECT_NAME": "CYGFM03",
    "OBJECT_ID": "2016-078H",
    "EPOCH": "2025-05-03T22:11:55.762080",
    "MEAN_MOTION": 15.41244113,
    "ECCENTRICITY": 0.0010066,
    "INCLINATION": 34.9454,
    "RA_OF_ASC_NODE": 32.8693,
    "ARG_OF_PERICENTER": 279.8034,
    "MEAN_ANOMALY": 80.1548,
    "EPHEMERIS_TYPE": 0,
    "CLASSIFICATION_TYPE": "U",
    "NORAD_CAT_ID": 41891,
    "ELEMENT_SET_NO": 999,
    "REV_AT_EPOCH": 46545,
    "BSTAR": 0.00042036,
    "MEAN_MOTION_DOT": 0.00018009,
    "MEAN_MOTION_DDOT": 0
  },
  {
    "OBJECT_NAME": "FENGYUN 3D",
    "OBJECT_ID": "2017-072A",
    "EPOCH": "2025-05-04T03:55:57.816768",
    "MEAN_MOTION": 14.19618989,
    "ECCENTRICITY": 0.0002352,
    "INCLINATION": 98.9596,
    "RA_OF_ASC_NODE": 87.5497,
    "ARG_OF_PERICENTER": 117.0555,
    "MEAN_ANOMALY": 243.0861,
    "EPHEMERIS_TYPE": 0,
    "CLASSIFICATION_TYPE": "U",
    "NORAD_CAT_ID": 43010,
    "ELEMENT_SET_NO": 999,
    "REV_AT_EPOCH": 38695,
    "BSTAR": 0.00011741,
    "MEAN_MOTION_DOT": 2.02e-06,
    "MEAN_MOTION_DDOT": 0
  },
  {
    "OBJECT_NAME": "NOAA 20 (JPSS-1)",
    "OBJECT_ID": "2017-073A",
    "EPOCH": "2025-05-04T04:29:07.403136",
    "MEAN_MOTION": 14.19533835,
    "ECCENTRICITY": 0.000203,
    "INCLINATION": 98.7398,
    "RA_OF_ASC_NODE": 63.235,
    "ARG_OF_PERICENTER": 60.9049,
    "MEAN_ANOMALY": 299.233,
    "EPHEMERIS_TYPE": 0,
    "CLASSIFICATION_TYPE": "U",
    "NORAD_CAT_ID": 43013,
    "ELEMENT_SET_NO": 999,
    "REV_AT_EPOCH": 38644,
    "BSTAR": 9.2602e-05,
    "MEAN_MOTION_DOT": 1.51e-06,
    "MEAN_MOTION_DDOT": 0
  },
  {
    "OBJECT_NAME": "GOES 17",
    "OBJECT_ID": "2018-022A",
    "EPOCH": "2025-05-03T20:43:23.295648",
    "MEAN_MOTION": 1.00270581,
    "ECCENTRICITY": 0.0002239,
    "INCLINATION": 0.0068,
    "RA_OF_ASC_NODE": 307.1588,
    "ARG_OF_PERICENTER": 145.6961,
    "MEAN_ANOMALY": 335.6015,
    "EPHEMERIS_TYPE": 0,
    "CLASSIFICATION_TYPE": "U",
    "NORAD_CAT_ID": 43226,
    "ELEMENT_SET_NO": 999,
    "REV_AT_EPOCH": 2631,
    "BSTAR": 0,
    "MEAN_MOTION_DOT": -1.03e-06,
    "MEAN_MOTION_DDOT": 0
  },
  {
    "OBJECT_NAME": "FENGYUN 2H",
    "OBJECT_ID": "2018-050A",
    "EPOCH": "2025-05-03T21:07:07.984992",
    "MEAN_MOTION": 1.00271099,
    "ECCENTRICITY": 5.4e-05,
    "INCLINATION": 1.9777,
    "RA_OF_ASC_NODE": 83.8704,
    "ARG_OF_PERICENTER": 155.1733,
    "MEAN_ANOMALY": 19.0993,
    "EPHEMERIS_TYPE": 0,
    "CLASSIFICATION_TYPE": "U",
    "NORAD_CAT_ID": 43491,
    "ELEMENT_SET_NO": 999,
    "REV_AT_EPOCH": 2533,
    "BSTAR": 0,
    "MEAN_MOTION_DOT": -1.39e-06,
    "MEAN_MOTION_DDOT": 0
  },
  {
    "OBJECT_NAME": "METOP-C",
    "OBJECT_ID": "2018-087A",
    "EPOCH": "2025-05-04T04:23:31.661376",
    "MEAN_MOTION": 14.21472807,
    "ECCENTRICITY": 9.9e-06,
    "INCLINATION": 98.7179,
    "RA_OF_ASC_NODE": 184.9685,
    "ARG_OF_PERICENTER": 145.3438,
    "MEAN_ANOMALY": 214.7745,
    "EPHEMERIS_TYPE": 0,
    "CLASSIFICATION_TYPE": "U",
    "NORAD_CAT_ID": 43689,
    "ELEMENT_SET_NO": 999,
    "REV_AT_EPOCH": 33672,
    "BSTAR": 0.00011973,
    "MEAN_MOTION_DOT": 2.18e-06,
    "MEAN_MOTION_DDOT": 0
  },
  {
    "OBJECT_NAME": "GEO-KOMPSAT-2A",
    "OBJECT_ID": "2018-100A",
    "EPOCH": "2025-05-04T04:41:05.352576",
    "MEAN_MOTION": 1.00270716,
    "ECCENTRICITY": 0.0001934,
    "INCLINATION": 0.0539,
    "RA_OF_ASC_NODE": 84.7031,
    "ARG_OF_PERICENTER": 344.8276,
    "MEAN_ANOMALY": 351.3406,
    "EPHEMERIS_TYPE": 0,
    "CLASSIFICATION_TYPE": "U",
    "NORAD_CAT_ID": 43823,
    "ELEMENT_SET_NO": 999,
    "REV_AT_EPOCH": 2356,
    "BSTAR": 0,
    "MEAN_MOTION_DOT": -3.54e-06,
    "MEAN_MOTION_DDOT": 0
  },
  {
    "OBJECT_NAME": "METEOR-M2 2",
    "OBJECT_ID": "2019-038A",
    "EPOCH": "2025-05-04T05:55:03.911520",
    "MEAN_MOTION": 14.2419754,
    "ECCENTRICITY": 0.0002311,
    "INCLINATION": 98.8725,
    "RA_OF_ASC_NODE": 101.5751,
    "ARG_OF_PERICENTER": 102.9267,
    "MEAN_ANOMALY": 257.2169,
    "EPHEMERIS_TYPE": 0,
    "CLASSIFICATION_TYPE": "U",
    "NORAD_CAT_ID": 44387,
    "ELEMENT_SET_NO": 999,
    "REV_AT_EPOCH": 30308,
    "BSTAR": 0.0001065,
    "MEAN_MOTION_DOT": 2e-06,
    "MEAN_MOTION_DDOT": 0
  },
  {
    "OBJECT_NAME": "ARKTIKA-M 1",
    "OBJECT_ID": "2021-016A",
    "EPOCH": "2025-05-02T06:28:44.926752",
    "MEAN_MOTION": 2.00603766,
    "ECCENTRICITY": 0.7086071,
    "INCLINATION": 63.1454,
    "RA_OF_ASC_NODE": 113.5296,
    "ARG_OF_PERICENTER": 268.5764,
    "MEAN_ANOMALY": 16.766,
    "EPHEMERIS_TYPE": 0,
    "CLASSIFICATION_TYPE": "U",
    "NORAD_CAT_ID": 47719,
    "ELEMENT_SET_NO": 999,
    "REV_AT_EPOCH": 3054,
    "BSTAR": 0,
    "MEAN_MOTION_DOT": 3.4e-07,
    "MEAN_MOTION_DDOT": 0
  }
]