CYGFM04                 
1 41885U 16078B   25124.16549197  .00017704  00000+0  41160-3 0  9997
2 41885  34.9376  30.5931 0010549 290.2502  69.7083 15.41359569465657
CYGFM02                 
1 41886U 16078C   25123.86641413  .00019483  00000+0  43837-3 0  9997
2 41886  34.9461  33.0744 0012452 281.5633  78.3688 15.42300645465554
CYGFM01                 
1 41887U 16078D   25123.89645432  .00017062  00000+0  41429-3 0  9992
2 41887  34.9454  56.1433 0010909 256.0780 103.8726 15.40053363465257
CYGFM08                 
1 41888U 16078E   25123.90318889  .00017803  00000+0  41967-3 0  9998
2 41888  34.9481  41.2353 0012982 277.2023  82.7221 15.40914224465462
CYGFM07                 
1 41890U 16078G   25123.92484646  .00018187  00000+0  42132-3 0  9999
2 41890  34.9500  31.3186 0011074 292.7088  67.2461 15.41457737465472
CYGFM03                 
1 41891U 16078H   25123.92495095  .00018009  00000+0  42036-3 0  9996
2 41891  34.9454  32.8693 0010066 279.8034  80.1548 15.41244113465457
FENGYUN 3D              
1 43010U 17072A   25124.16386362  .00000202  00000+0  11741-3 0  9994
2 43010  98.9596  87.5497 0002352 117.0555 243.0861 14.19618989386953
NOAA 20 (JPSS-1)        
1 43013U 17073A   25124.18689124  .00000151  00000+0  92602-4 0  9991
2 43013  98.7398  63.2350 0002030  60.9049 299.2330 14.19533835386444
GOES 17                 
1 43226U 18022A   25123.86346407 -.00000103  00000+0  00000+0 0  9994
2 43226   0.0068 307.1588 0002239 145.6961 335.6015  1.00270581 26312
FENGYUN 2H              
1 43491U 18050A   25123.87995353 -.00000139  00000+0  00000+0 0  9999
2 43491   1.9777  83.8704 0000540 155.1733  19.0993  1.00271099 25331
METOP-C                 
1 43689U 18087A   25124.18300534  .00000218  00000+0  11973-3 0  9996
2 43689  98.7179 184.9685 0000099 145.3438 214.7745 14.21472807336727
GEO-KOMPSAT-2A          
1 43823U 18100A   25124.19520084 -.00000354  00000+0  00000+0 0  9994
2 43823   0.0539  84.7031 0001934 344.8276 351.3406  1.00270716 23565
METEOR-M2 2             
1 44387U 19038A   25124.24657305  .00000200  00000+0  10650-3 0  9999
2 44387  98.8725 101.5751 0002311 102.9267 257.2169 14.24197540303084
ARKTIKA-M 1             
1 47719U 21016A   25122.26996443  .00000034  00000+0  00000+0 0  9998
2 47719  63.1454 113.5296 7086071 268.5764  16.7660  2.00603766 30545
